OBJECT_NAME,OBJECT_ID,EPOCH,MEAN_MOTION,ECCENTRICITY,INCLINATION,RA_OF_ASC_NODE,ARG_OF_PERICENTER,MEAN_ANOMALY,EPHEMERIS_TYPE,CLASSIFICATION_TYPE,NORAD_CAT_ID,ELEMENT_SET_NO,REV_AT_EPOCH,BSTAR,MEAN_MOTION_DOT,MEAN_MOTION_DDOT
MERIDIAN 10,2022-030A,2026-07-08T21:39:42.486912,2.00610414,.67899438,62.6795,138.4478,272.8439,17.6229,0,U,52145,999,3146,0,.196E-5,0
OMNI-L1,2022-033A,2026-07-09T04:16:12.258624,14.82832347,.00047951,97.8387,268.9284,196.8815,163.2240,0,U,52157,999,23071,.16566232E-3,.1289E-4,0
ENMAP,2022-033C,2026-07-09T19:46:19.369920,14.74938200,.0001365,97.9786,272.7521,77.1106,283.0256,0,U,52159,999,22999,.68531E-5,-.4E-7,0
ARCSAT-1,2022-033E,2026-07-09T15:57:02.162304,15.54174259,.0006346,97.2751,283.2795,112.4560,247.7367,0,U,52161,999,23919,.16163E-3,.10424E-3,0
GLOBAL-18,2022-034B,2026-07-09T14:42:16.238016,15.47057031,.0004181,52.9806,149.3969,9.3469,350.7614,0,U,52196,999,24043,.30048E-3,.15045E-3,0
GAOFEN-3 03,2022-035A,2026-07-09T20:19:31.672704,14.42217348,.0001731,98.4070,199.0982,92.9192,267.2196,0,U,52200,999,22411,-.1793E-4,-.103E-5,0
DAQI-1,2022-039A,2026-07-09T20:47:10.436064,14.57690309,.0003596,98.1479,129.2494,162.2525,197.8800,0,U,52257,999,22524,-.57817E-5,-.71E-6,0
BRO-6,2022-047AE,2026-07-09T20:13:21.186048,15.52257261,.0003124,97.3389,282.3580,340.8807,19.2328,0,U,52422,999,23466,.5296E-3,.32144E-3,0
JILIN-1 GAOFEN 3D27,2022-048B,2026-07-09T20:29:13.073856,15.81648639,.000453,97.5712,306.9504,258.2754,101.8005,0,U,52444,999,23305,.72494E-3,.146651E-2,0
JILIN-1 GAOFEN 3D28,2022-048C,2026-07-09T16:10:42.462048,15.86124176,.0004162,97.5648,307.0162,251.9823,108.0994,0,U,52445,999,23308,.77292E-3,.194076E-2,0
VIGORIDE-3,2022-057AE,2026-07-08T23:12:28.412064,15.27507689,.00093232,97.6627,330.5247,54.3775,305.8330,0,U,52760,999,22848,.13145422E-3,.3462E-4,0
ION SCV-006,2022-057AF,2026-07-09T16:42:01.763136,15.45832646,.00173,97.6119,340.4092,36.9610,323.2827,0,U,52761,999,22959,.18838E-3,.9091E-4,0
SHERPA-AC1,2022-057AH,2026-07-09T15:59:41.685216,15.36580549,.0007727,97.6708,340.8379,23.0948,337.0641,0,U,52763,999,22915,.15167E-3,.5332E-4,0
OMNI-L2,2022-057AR,2026-07-09T03:24:57.554784,14.81428381,.00052406,97.4704,251.0248,244.9668,115.1002,0,U,52771,999,22364,.12354628E-3,.919E-5,0
STEP CUBE LAB-II,2022-065D,2026-07-09T20:06:02.147040,14.63338439,.0007715,98.2257,334.6734,321.8214,38.2441,0,U,52897,999,21481,.10936E-3,.517E-5,0
RANDEV,2022-065E,2026-07-09T19:58:57.055584,14.63727239,.0007063,98.2242,335.0300,322.6409,37.4301,0,U,52898,999,21456,.12605E-3,.608E-5,0
SNUGLITE-II,2022-065F,2026-07-09T15:33:16.228800,14.64388183,.00065,98.2228,335.4423,320.9247,39.1485,0,U,52899,999,21428,.12369E-3,.605E-5,0
MIMAN,2022-065G,2026-07-09T15:15:27.745920,14.61868130,.0006692,98.2290,333.0086,323.9544,36.1205,0,U,52900,999,21372,.80008E-4,.352E-5,0
STARLINK-4362,2022-077A,2026-07-09T17:29:06.825408,15.05656275,.0001322,97.2835,8.4820,90.8209,269.3170,0,U,53043,999,21927,.15025E-4,.161E-5,0
LARES-2,2022-080A,2026-07-06T17:36:42.503328,6.38965057,.00052813,70.1565,298.6253,331.1813,28.8535,0,U,53105,999,9291,0,-.14E-6,0
GREENCUBE (IO-117),2022-080E,2026-07-09T06:49:55.485408,6.42583278,.00090276,70.1425,290.5613,284.8400,75.1260,0,U,53109,999,9348,0,-.3E-7,0
STARLINK-4410,2022-084R,2026-07-09T20:00:01.999008,15.43256164,.0001689,97.5998,252.6721,81.1039,59.3035,0,U,53204,999,578,.10075E-3,.4384E-4,0
COSMOS 2558,2022-089A,2026-07-09T20:29:02.909760,15.80528596,.0003666,97.2242,295.9254,238.3398,121.7513,0,U,53323,999,22140,.61174E-3,.11711E-2,0
TECMS,2022-090A,2026-07-09T20:23:08.556576,15.21210819,.0005541,97.3130,258.3172,98.2267,261.9598,0,U,53346,999,21825,.11107E-3,.2411E-4,0
DONGPO 02,2022-098J,2026-07-09T19:54:08.247168,15.79964566,.0004309,97.5532,324.0746,226.4712,133.6197,0,U,53452,999,21836,.69311E-3,.129564E-2,0
DONGPO 01,2022-098K,2026-07-09T20:31:35.320224,15.77130772,.0002772,97.5607,324.5610,217.0204,143.0871,0,U,53453,999,21832,.68024E-3,.11177E-2,0
STARLINK-4400,2022-099D,2026-07-09T07:25:00.719040,15.05652292,.00016283,97.2840,308.1670,122.5425,237.5960,0,U,53468,999,21427,-.7660725E-5,-.167E-5,0
STARLINK-4621,2022-105AE,2026-07-08T15:32:00.937248,15.05645360,.00017511,97.2845,67.5577,93.9199,266.2229,0,U,53676,999,21143,.25487065E-4,.311E-5,0
SHERPA-LTC2,2022-107BG,2026-07-09T05:14:20.095296,14.69887586,.03927355,53.2366,127.0567,287.9412,67.9124,0,U,53754,999,20578,.15097565E-3,.2746E-4,0
CENTISPACE-1 S3,2022-108A,2026-07-09T20:20:51.273888,14.61279581,.0010606,53.5341,321.5544,52.2809,307.9126,0,U,53757,999,20484,.8065E-4,.211E-5,0
