MERIDIAN 10             
1 52145U 22030A   26189.90257508  .00000196  00000+0  00000+0 0  9990
2 52145  62.6795 138.4478 6789943 272.8439  17.6229  2.00610414 31469
OMNI-L1                 
1 52157U 22033A   26190.17791966  .00001289  00000+0  16566-3 0  9990
2 52157  97.8387 268.9284 0004795 196.8815 163.2240 14.82832347230719
ENMAP                   
1 52159U 22033C   26190.82383530 -.00000004  00000+0  68531-5 0  9994
2 52159  97.9786 272.7521 0001365  77.1106 283.0256 14.74938200229998
ARCSAT-1                
1 52161U 22033E   26190.66460836  .00010424  00000+0  16163-3 0  9992
2 52161  97.2751 283.2795 0006346 112.4560 247.7367 15.54174259239195
GLOBAL-18               
1 52196U 22034B   26190.61268794  .00015045  00000+0  30048-3 0  9997
2 52196  52.9806 149.3969 0004181   9.3469 350.7614 15.47057031240433
GAOFEN-3 03             
1 52200U 22035A   26190.84689436 -.00000103  00000+0 -17930-4 0  9996
2 52200  98.4070 199.0982 0001731  92.9192 267.2196 14.42217348224110
DAQI-1                  
1 52257U 22039A   26190.86609301 -.00000071  00000+0 -57817-5 0  9990
2 52257  98.1479 129.2494 0003596 162.2525 197.8800 14.57690309225240
BRO-6                   
1 52422U 22047AE  26190.84260632  .00032144  00000+0  52960-3 0  9997
2 52422  97.3389 282.3580 0003124 340.8807  19.2328 15.52257261234666
JILIN-1 GAOFEN 3D27     
1 52444U 22048B   26190.85362354  .00146651  00000+0  72494-3 0  9990
2 52444  97.5712 306.9504 0004530 258.2754 101.8005 15.81648639233053
JILIN-1 GAOFEN 3D28     
1 52445U 22048C   26190.67410257  .00194076  00000+0  77292-3 0  9992
2 52445  97.5648 307.0162 0004162 251.9823 108.0994 15.86124176233081
VIGORIDE-3              
1 52760U 22057AE  26189.96699551  .00003462  00000+0  13145-3 0  9993
2 52760  97.6627 330.5247 0009323  54.3775 305.8330 15.27507689228487
ION SCV-006             
1 52761U 22057AF  26190.69585374  .00009091  00000+0  18838-3 0  9991
2 52761  97.6119 340.4092 0017300  36.9610 323.2827 15.45832646229592
SHERPA-AC1              
1 52763U 22057AH  26190.66645469  .00005332  00000+0  15167-3 0  9998
2 52763  97.6708 340.8379 0007727  23.0948 337.0641 15.36580549229154
OMNI-L2                 
1 52771U 22057AR  26190.14233281  .00000919  00000+0  12355-3 0  9997
2 52771  97.4704 251.0248 0005240 244.9668 115.1002 14.81428381223644
STEP CUBE LAB-II        
1 52897U 22065D   26190.83752485  .00000517  00000+0  10936-3 0  9990
2 52897  98.2257 334.6734 0007715 321.8214  38.2441 14.63338439214819
RANDEV                  
1 52898U 22065E   26190.83260481  .00000608  00000+0  12605-3 0  9997
2 52898  98.2242 335.0300 0007063 322.6409  37.4301 14.63727239214567
SNUGLITE-II             
1 52899U 22065F   26190.64810450  .00000605  00000+0  12369-3 0  9998
2 52899  98.2228 335.4423 0006500 320.9247  39.1485 14.64388183214281
MIMAN                   
1 52900U 22065G   26190.63573780  .00000352  00000+0  80008-4 0  9997
2 52900  98.2290 333.0086 0006692 323.9544  36.1205 14.61868130213724
STARLINK-4362           
1 53043U 22077A   26190.72855122  .00000161  00000+0  15025-4 0  9997
2 53043  97.2835   8.4820 0001322  90.8209 269.3170 15.05656275219270
LARES-2                 
1 53105U 22080A   26187.73382527 -.00000014  00000+0  00000+0 0  9991
2 53105  70.1565 298.6253 0005281 331.1813  28.8535  6.38965057 92912
GREENCUBE (IO-117)      
1 53109U 22080E   26190.28466997 -.00000003  00000+0  00000+0 0  9991
2 53109  70.1425 290.5613 0009027 284.8400  75.1260  6.42583278 93489
STARLINK-4410           
1 53204U 22084R   26190.83335647  .00004384  00000+0  10075-3 0  9991
2 53204  97.5998 252.6721 0001689  81.1039  59.3035 15.43256164  5786
COSMOS 2558             
1 53323U 22089A   26190.85350590  .00117110  00000+0  61174-3 0  9992
2 53323  97.2242 295.9254 0003666 238.3398 121.7513 15.80528596221405
TECMS                   
1 53346U 22090A   26190.84940459  .00002411  00000+0  11107-3 0  9995
2 53346  97.3130 258.3172 0005541  98.2267 261.9598 15.21210819218251
DONGPO 02               
1 53452U 22098J   26190.82926212  .00129564  00000+0  69311-3 0  9999
2 53452  97.5532 324.0746 0004309 226.4712 133.6197 15.79964566218366
DONGPO 01               
1 53453U 22098K   26190.85526991  .00111770  00000+0  68024-3 0  9993
2 53453  97.5607 324.5610 0002772 217.0204 143.0871 15.77130772218321
STARLINK-4400           
1 53468U 22099D   26190.30903610 -.00000167  00000+0 -76607-5 0  9994
2 53468  97.2840 308.1670 0001628 122.5425 237.5960 15.05652292214276
STARLINK-4621           
1 53676U 22105AE  26189.64723307  .00000311  00000+0  25487-4 0  9999
2 53676  97.2845  67.5577 0001751  93.9199 266.2229 15.05645360211430
SHERPA-LTC2             
1 53754U 22107BG  26190.21828814  .00002746  00000+0  15098-3 0  9992
2 53754  53.2366 127.0567 0392735 287.9412  67.9124 14.69887586205784
CENTISPACE-1 S3         
1 53757U 22108A   26190.84781567  .00000211  00000+0  80650-4 0  9990
2 53757  53.5341 321.5544 0010606  52.2809 307.9126 14.61279581204843
